{
  "type": "FeatureCollection",
  "features": [
    {
      "type": "Feature",
      "geometry": {
        "type": "Polygon",
        "coordinates": [
          [
            [
              29.17389725352756,
              41.016898033426386
            ],
            [
              29.171138813697127,
              41.01239190502904
            ],
            [
              29.17508822582069,
              41.00828870604369
            ],
            [
              29.18179576336902,
              41.00869149573917
            ],
            [
              29.184554553158836,
              41.01319745286435
            ],
            [
              29.1806054555182,
              41.01730079157111
            ],
            [
              29.17389725352756,
              41.016898033426386
            ]
          ]
        ]
      },
      "properties": {
        "analysis_id": 35,
        "cell_index": "881ec914a7fffff",
        "suitability_score": 79.98,
        "score_class": "high",
        "criteria_breakdown": {
          "method": "AHP_TOPSIS",
          "criteria_order": [
            "obstacle",
            "transport",
            "land_use",
            "nfz"
          ],
          "criteria_direction": {
            "obstacle": "cost",
            "transport": "benefit",
            "land_use": "benefit",
            "nfz": "benefit"
          },
          "criteria_scores": {
            "obstacle": 0.3127514263528286,
            "transport": 0.9748749561316509,
            "land_use": 0.8845037463248018,
            "nfz": 1.0
          },
          "decision_values": {
            "obstacle": 0.6872485736471714,
            "transport": 0.9748749561316509,
            "land_use": 0.8845037463248018,
            "nfz": 1.0
          },
          "normalized_values": {
            "obstacle": 0.197624,
            "transport": 0.208001,
            "land_use": 0.231058,
            "nfz": 0.208514
          },
          "weighted_values": {
            "obstacle": 0.069168,
            "transport": 0.052,
            "land_use": 0.046212,
            "nfz": 0.041703
          },
          "ideal_best": {
            "obstacle": 0.065841,
            "transport": 0.05334,
            "land_use": 0.046212,
            "nfz": 0.041703
          },
          "ideal_worst": {
            "obstacle": 0.080362,
            "transport": 0.048856,
            "land_use": 0.037834,
            "nfz": 0.041703
          },
          "distance_to_best": 0.003587,
          "distance_to_worst": 0.01433,
          "topsis_closeness": 0.799799
        },
        "mcdm_method": "AHP_TOPSIS"
      }
    },
    {
      "type": "Feature",
      "geometry": {
        "type": "Polygon",
        "coordinates": [
          [
            [
              29.191643036353014,
              41.035321873301086
            ],
            [
              29.18888325090436,
              41.030816989200275
            ],
            [
              29.192832483083706,
              41.02671377975105
            ],
            [
              29.19954118570743,
              41.02711531482714
            ],
            [
              29.20230132083409,
              41.03162002757424
            ],
            [
              29.198352403736315,
              41.03572337660384
            ],
            [
              29.191643036353014,
              41.035321873301086
            ]
          ]
        ]
      },
      "properties": {
        "analysis_id": 35,
        "cell_index": "881ec91487fffff",
        "suitability_score": 75.15,
        "score_class": "high",
        "criteria_breakdown": {
          "method": "AHP_TOPSIS",
          "criteria_order": [
            "obstacle",
            "transport",
            "land_use",
            "nfz"
          ],
          "criteria_direction": {
            "obstacle": "cost",
            "transport": "benefit",
            "land_use": "benefit",
            "nfz": "benefit"
          },
          "criteria_scores": {
            "obstacle": 0.32175106950377835,
            "transport": 1.0,
            "land_use": 0.8113425399226469,
            "nfz": 1.0
          },
          "decision_values": {
            "obstacle": 0.6782489304962216,
            "transport": 1.0,
            "land_use": 0.8113425399226469,
            "nfz": 1.0
          },
          "normalized_values": {
            "obstacle": 0.195036,
            "transport": 0.213361,
            "land_use": 0.211946,
            "nfz": 0.208514
          },
          "weighted_values": {
            "obstacle": 0.068263,
            "transport": 0.05334,
            "land_use": 0.042389,
            "nfz": 0.041703
          },
          "ideal_best": {
            "obstacle": 0.065841,
            "transport": 0.05334,
            "land_use": 0.046212,
            "nfz": 0.041703
          },
          "ideal_worst": {
            "obstacle": 0.080362,
            "transport": 0.048856,
            "land_use": 0.037834,
            "nfz": 0.041703
          },
          "distance_to_best": 0.004525,
          "distance_to_worst": 0.013684,
          "topsis_closeness": 0.751498
        },
        "mcdm_method": "AHP_TOPSIS"
      }
    },
    {
      "type": "Feature",
      "geometry": {
        "type": "Polygon",
        "coordinates": [
          [
            [
              29.171514606097407,
              41.0341149797645
            ],
            [
              29.168755736024938,
              41.02960945244053
            ],
            [
              29.172706046975836,
              41.025506791447775
            ],
            [
              29.17941491353461,
              41.025909518068794
            ],
            [
              29.18217413375921,
              41.03041487418097
            ],
            [
              29.178224137350202,
              41.034517674888846
            ],
            [
              29.171514606097407,
              41.0341149797645
            ]
          ]
        ]
      },
      "properties": {
        "analysis_id": 35,
        "cell_index": "881ec914a9fffff",
        "suitability_score": 73.63,
        "score_class": "medium",
        "criteria_breakdown": {
          "method": "AHP_TOPSIS",
          "criteria_order": [
            "obstacle",
            "transport",
            "land_use",
            "nfz"
          ],
          "criteria_direction": {
            "obstacle": "cost",
            "transport": "benefit",
            "land_use": "benefit",
            "nfz": "benefit"
          },
          "criteria_scores": {
            "obstacle": 0.3064009507201614,
            "transport": 0.9474098369589564,
            "land_use": 0.8840406400975866,
            "nfz": 1.0
          },
          "decision_values": {
            "obstacle": 0.6935990492798386,
            "transport": 0.9474098369589564,
            "land_use": 0.8840406400975866,
            "nfz": 1.0
          },
          "normalized_values": {
            "obstacle": 0.19945,
            "transport": 0.202141,
            "land_use": 0.230937,
            "nfz": 0.208514
          },
          "weighted_values": {
            "obstacle": 0.069808,
            "transport": 0.050535,
            "land_use": 0.046187,
            "nfz": 0.041703
          },
          "ideal_best": {
            "obstacle": 0.065841,
            "transport": 0.05334,
            "land_use": 0.046212,
            "nfz": 0.041703
          },
          "ideal_worst": {
            "obstacle": 0.080362,
            "transport": 0.048856,
            "land_use": 0.037834,
            "nfz": 0.041703
          },
          "distance_to_best": 0.004858,
          "distance_to_worst": 0.013564,
          "topsis_closeness": 0.736287
        },
        "mcdm_method": "AHP_TOPSIS"
      }
    },
    {
      "type": "Feature",
      "geometry": {
        "type": "Polygon",
        "coordinates": [
          [
            [
              29.17508822582069,
              41.00828870604369
            ],
            [
              29.172330001067934,
              41.00378227734698
            ],
            [
              29.176278963923274,
              40.999678809643214
            ],
            [
              29.182985837155133,
              41.00008163091645
            ],
            [
              29.185744411770887,
              41.00458788831077
            ],
            [
              29.18179576336902,
              41.00869149573917
            ],
            [
              29.17508822582069,
              41.00828870604369
            ]
          ]
        ]
      },
      "properties": {
        "analysis_id": 35,
        "cell_index": "881ec9064dfffff",
        "suitability_score": 72.84,
        "score_class": "medium",
        "criteria_breakdown": {
          "method": "AHP_TOPSIS",
          "criteria_order": [
            "obstacle",
            "transport",
            "land_use",
            "nfz"
          ],
          "criteria_direction": {
            "obstacle": "cost",
            "transport": "benefit",
            "land_use": "benefit",
            "nfz": "benefit"
          },
          "criteria_scores": {
            "obstacle": 0.3214646839703118,
            "transport": 0.9828838732752213,
            "land_use": 0.8041427269145248,
            "nfz": 1.0
          },
          "decision_values": {
            "obstacle": 0.6785353160296882,
            "transport": 0.9828838732752213,
            "land_use": 0.8041427269145248,
            "nfz": 1.0
          },
          "normalized_values": {
            "obstacle": 0.195118,
            "transport": 0.209709,
            "land_use": 0.210065,
            "nfz": 0.208514
          },
          "weighted_values": {
            "obstacle": 0.068291,
            "transport": 0.052427,
            "land_use": 0.042013,
            "nfz": 0.041703
          },
          "ideal_best": {
            "obstacle": 0.065841,
            "transport": 0.05334,
            "land_use": 0.046212,
            "nfz": 0.041703
          },
          "ideal_worst": {
            "obstacle": 0.080362,
            "transport": 0.048856,
            "land_use": 0.037834,
            "nfz": 0.041703
          },
          "distance_to_best": 0.004946,
          "distance_to_worst": 0.013263,
          "topsis_closeness": 0.728366
        },
        "mcdm_method": "AHP_TOPSIS"
      }
    },
    {
      "type": "Feature",
      "geometry": {
        "type": "Polygon",
        "coordinates": [
          [
            [
              29.18098357283558,
              41.03902273025733
            ],
            [
              29.178224137350202,
              41.034517674888846
            ],
            [
              29.18217413375921,
              41.03041487418097
            ],
            [
              29.18888325090436,
              41.030816989200275
            ],
            [
              29.191643036353014,
              41.035321873301086
            ],
            [
              29.187693354770563,
              41.03942481365517
            ],
            [
              29.18098357283558,
              41.03902273025733
            ]
          ]
        ]
      },
      "properties": {
        "analysis_id": 35,
        "cell_index": "881ec91485fffff",
        "suitability_score": 72.65,
        "score_class": "medium",
        "criteria_breakdown": {
          "method": "AHP_TOPSIS",
          "criteria_order": [
            "obstacle",
            "transport",
            "land_use",
            "nfz"
          ],
          "criteria_direction": {
            "obstacle": "cost",
            "transport": "benefit",
            "land_use": "benefit",
            "nfz": "benefit"
          },
          "criteria_scores": {
            "obstacle": 0.3130913443428211,
            "transport": 0.9346331624860487,
            "land_use": 0.8579683569883855,
            "nfz": 1.0
          },
          "decision_values": {
            "obstacle": 0.6869086556571788,
            "transport": 0.9346331624860487,
            "land_use": 0.8579683569883855,
            "nfz": 1.0
          },
          "normalized_values": {
            "obstacle": 0.197526,
            "transport": 0.199415,
            "land_use": 0.224126,
            "nfz": 0.208514
          },
          "weighted_values": {
            "obstacle": 0.069134,
            "transport": 0.049854,
            "land_use": 0.044825,
            "nfz": 0.041703
          },
          "ideal_best": {
            "obstacle": 0.065841,
            "transport": 0.05334,
            "land_use": 0.046212,
            "nfz": 0.041703
          },
          "ideal_worst": {
            "obstacle": 0.080362,
            "transport": 0.048856,
            "land_use": 0.037834,
            "nfz": 0.041703
          },
          "distance_to_best": 0.004992,
          "distance_to_worst": 0.013264,
          "topsis_closeness": 0.726539
        },
        "mcdm_method": "AHP_TOPSIS"
      }
    },
    {
      "type": "Feature",
      "geometry": {
        "type": "Polygon",
        "coordinates": [
          [
            [
              29.184554553158836,
              41.01319745286435
            ],
            [
              29.18179576336902,
              41.00869149573917
            ],
            [
              29.185744411770887,
              41.00458788831077
            ],
            [
              29.192451535301952,
              41.004990098356814
            ],
            [
              29.195210674766056,
              41.00949588412373
            ],
            [
              29.191262341102053,
              41.01359963120776
            ],
            [
              29.184554553158836,
              41.01319745286435
            ]
          ]
        ]
      },
      "properties": {
        "analysis_id": 35,
        "cell_index": "881ec90649fffff",
        "suitability_score": 70.17,
        "score_class": "medium",
        "criteria_breakdown": {
          "method": "AHP_TOPSIS",
          "criteria_order": [
            "obstacle",
            "transport",
            "land_use",
            "nfz"
          ],
          "criteria_direction": {
            "obstacle": "cost",
            "transport": "benefit",
            "land_use": "benefit",
            "nfz": "benefit"
          },
          "criteria_scores": {
            "obstacle": 0.31984725074606185,
            "transport": 0.9776297225331957,
            "land_use": 0.795130873426127,
            "nfz": 1.0
          },
          "decision_values": {
            "obstacle": 0.6801527492539381,
            "transport": 0.9776297225331957,
            "land_use": 0.795130873426127,
            "nfz": 1.0
          },
          "normalized_values": {
            "obstacle": 0.195584,
            "transport": 0.208588,
            "land_use": 0.207711,
            "nfz": 0.208514
          },
          "weighted_values": {
            "obstacle": 0.068454,
            "transport": 0.052147,
            "land_use": 0.041542,
            "nfz": 0.041703
          },
          "ideal_best": {
            "obstacle": 0.065841,
            "transport": 0.05334,
            "land_use": 0.046212,
            "nfz": 0.041703
          },
          "ideal_worst": {
            "obstacle": 0.080362,
            "transport": 0.048856,
            "land_use": 0.037834,
            "nfz": 0.041703
          },
          "distance_to_best": 0.005482,
          "distance_to_worst": 0.012898,
          "topsis_closeness": 0.701736
        },
        "mcdm_method": "AHP_TOPSIS"
      }
    },
    {
      "type": "Feature",
      "geometry": {
        "type": "Polygon",
        "coordinates": [
          [
            [
              29.1608539006409,
              41.03781409609216
            ],
            [
              29.1580953810058,
              41.0333083976425
            ],
            [
              29.16204645580248,
              41.02920614570465
            ],
            [
              29.168755736024938,
              41.02960945244053
            ],
            [
              29.171514606097407,
              41.0341149797645
            ],
            [
              29.167563845587363,
              41.03821737148321
            ],
            [
              29.1608539006409,
              41.03781409609216
            ]
          ]
        ]
      },
      "properties": {
        "analysis_id": 35,
        "cell_index": "881ec914e7fffff",
        "suitability_score": 66.59,
        "score_class": "medium",
        "criteria_breakdown": {
          "method": "AHP_TOPSIS",
          "criteria_order": [
            "obstacle",
            "transport",
            "land_use",
            "nfz"
          ],
          "criteria_direction": {
            "obstacle": "cost",
            "transport": "benefit",
            "land_use": "benefit",
            "nfz": "benefit"
          },
          "criteria_scores": {
            "obstacle": 0.3406147953450248,
            "transport": 0.9419937761598253,
            "land_use": 0.7619964947858817,
            "nfz": 1.0
          },
          "decision_values": {
            "obstacle": 0.6593852046549752,
            "transport": 0.9419937761598253,
            "land_use": 0.7619964947858817,
            "nfz": 1.0
          },
          "normalized_values": {
            "obstacle": 0.189612,
            "transport": 0.200985,
            "land_use": 0.199055,
            "nfz": 0.208514
          },
          "weighted_values": {
            "obstacle": 0.066364,
            "transport": 0.050246,
            "land_use": 0.039811,
            "nfz": 0.041703
          },
          "ideal_best": {
            "obstacle": 0.065841,
            "transport": 0.05334,
            "land_use": 0.046212,
            "nfz": 0.041703
          },
          "ideal_worst": {
            "obstacle": 0.080362,
            "transport": 0.048856,
            "land_use": 0.037834,
            "nfz": 0.041703
          },
          "distance_to_best": 0.007128,
          "distance_to_worst": 0.014205,
          "topsis_closeness": 0.665854
        },
        "mcdm_method": "AHP_TOPSIS"
      }
    },
    {
      "type": "Feature",
      "geometry": {
        "type": "Polygon",
        "coordinates": [
          [
            [
              29.172706046975836,
              41.025506791447775
            ],
            [
              29.16994739203882,
              41.02100096350804
            ],
            [
              29.17389725352756,
              41.016898033426386
            ],
            [
              29.1806054555182,
              41.01730079157111
            ],
            [
              29.18336446051094,
              41.02180644826888
            ],
            [
              29.17941491353461,
              41.025909518068794
            ],
            [
              29.172706046975836,
              41.025506791447775
            ]
          ]
        ]
      },
      "properties": {
        "analysis_id": 35,
        "cell_index": "881ec914a1fffff",
        "suitability_score": 65.77,
        "score_class": "medium",
        "criteria_breakdown": {
          "method": "AHP_TOPSIS",
          "criteria_order": [
            "obstacle",
            "transport",
            "land_use",
            "nfz"
          ],
          "criteria_direction": {
            "obstacle": "cost",
            "transport": "benefit",
            "land_use": "benefit",
            "nfz": "benefit"
          },
          "criteria_scores": {
            "obstacle": 0.34581139087579477,
            "transport": 1.0,
            "land_use": 0.7330423186540237,
            "nfz": 1.0
          },
          "decision_values": {
            "obstacle": 0.6541886091242053,
            "transport": 1.0,
            "land_use": 0.7330423186540237,
            "nfz": 1.0
          },
          "normalized_values": {
            "obstacle": 0.188117,
            "transport": 0.213361,
            "land_use": 0.191492,
            "nfz": 0.208514
          },
          "weighted_values": {
            "obstacle": 0.065841,
            "transport": 0.05334,
            "land_use": 0.038298,
            "nfz": 0.041703
          },
          "ideal_best": {
            "obstacle": 0.065841,
            "transport": 0.05334,
            "land_use": 0.046212,
            "nfz": 0.041703
          },
          "ideal_worst": {
            "obstacle": 0.080362,
            "transport": 0.048856,
            "land_use": 0.037834,
            "nfz": 0.041703
          },
          "distance_to_best": 0.007913,
          "distance_to_worst": 0.015204,
          "topsis_closeness": 0.657695
        },
        "mcdm_method": "AHP_TOPSIS"
      }
    },
    {
      "type": "Feature",
      "geometry": {
        "type": "Polygon",
        "coordinates": [
          [
            [
              29.141918291913925,
              41.02799384194652
            ],
            [
              29.139160903672014,
              41.023487200249726
            ],
            [
              29.1431126061879,
              41.01938522807997
            ],
            [
              29.149821383305717,
              41.01978975769354
            ],
            [
              29.152579122362244,
              41.02429622837672
            ],
            [
              29.14862773356361,
              41.02839834046491
            ],
            [
              29.141918291913925,
              41.02799384194652
            ]
          ]
        ]
      },
      "properties": {
        "analysis_id": 35,
        "cell_index": "881ec915d1fffff",
        "suitability_score": 61.0,
        "score_class": "medium",
        "criteria_breakdown": {
          "method": "AHP_TOPSIS",
          "criteria_order": [
            "obstacle",
            "transport",
            "land_use",
            "nfz"
          ],
          "criteria_direction": {
            "obstacle": "cost",
            "transport": "benefit",
            "land_use": "benefit",
            "nfz": "benefit"
          },
          "criteria_scores": {
            "obstacle": 0.2812543850232042,
            "transport": 1.0,
            "land_use": 0.8363102948074952,
            "nfz": 1.0
          },
          "decision_values": {
            "obstacle": 0.7187456149767958,
            "transport": 1.0,
            "land_use": 0.8363102948074952,
            "nfz": 1.0
          },
          "normalized_values": {
            "obstacle": 0.206681,
            "transport": 0.213361,
            "land_use": 0.218468,
            "nfz": 0.208514
          },
          "weighted_values": {
            "obstacle": 0.072338,
            "transport": 0.05334,
            "land_use": 0.043694,
            "nfz": 0.041703
          },
          "ideal_best": {
            "obstacle": 0.065841,
            "transport": 0.05334,
            "land_use": 0.046212,
            "nfz": 0.041703
          },
          "ideal_worst": {
            "obstacle": 0.080362,
            "transport": 0.048856,
            "land_use": 0.037834,
            "nfz": 0.041703
          },
          "distance_to_best": 0.006968,
          "distance_to_worst": 0.0109,
          "topsis_closeness": 0.610029
        },
        "mcdm_method": "AHP_TOPSIS"
      }
    },
    {
      "type": "Feature",
      "geometry": {
        "type": "Polygon",
        "coordinates": [
          [
            [
              29.152579122362244,
              41.02429622837672
            ],
            [
              29.149821383305717,
              41.01978975769354
            ],
            [
              29.153772322486518,
              41.01568737633757
            ],
            [
              29.160480686828464,
              41.01609132581693
            ],
            [
              29.16323877641448,
              41.020597625400285
            ],
            [
              29.15928815120634,
              41.024700146609064
            ],
            [
              29.152579122362244,
              41.02429622837672
            ]
          ]
        ]
      },
      "properties": {
        "analysis_id": 35,
        "cell_index": "881ec915d3fffff",
        "suitability_score": 53.84,
        "score_class": "medium",
        "criteria_breakdown": {
          "method": "AHP_TOPSIS",
          "criteria_order": [
            "obstacle",
            "transport",
            "land_use",
            "nfz"
          ],
          "criteria_direction": {
            "obstacle": "cost",
            "transport": "benefit",
            "land_use": "benefit",
            "nfz": "benefit"
          },
          "criteria_scores": {
            "obstacle": 0.28378817917168797,
            "transport": 1.0,
            "land_use": 0.7767262737422079,
            "nfz": 1.0
          },
          "decision_values": {
            "obstacle": 0.716211820828312,
            "transport": 1.0,
            "land_use": 0.7767262737422079,
            "nfz": 1.0
          },
          "normalized_values": {
            "obstacle": 0.205953,
            "transport": 0.213361,
            "land_use": 0.202903,
            "nfz": 0.208514
          },
          "weighted_values": {
            "obstacle": 0.072083,
            "transport": 0.05334,
            "land_use": 0.040581,
            "nfz": 0.041703
          },
          "ideal_best": {
            "obstacle": 0.065841,
            "transport": 0.05334,
            "land_use": 0.046212,
            "nfz": 0.041703
          },
          "ideal_worst": {
            "obstacle": 0.080362,
            "transport": 0.048856,
            "land_use": 0.037834,
            "nfz": 0.041703
          },
          "distance_to_best": 0.008407,
          "distance_to_worst": 0.009807,
          "topsis_closeness": 0.538442
        },
        "mcdm_method": "AHP_TOPSIS"
      }
    },
    {
      "type": "Feature",
      "geometry": {
        "type": "Polygon",
        "coordinates": [
          [
            [
              29.16443086254507,
              41.01198853552242
            ],
            [
              29.161672987940335,
              41.00748193560947
            ],
            [
              29.165622714262376,
              41.003378876414466
            ],
            [
              29.172330001067934,
              41.00378227734698
            ],
            [
              29.17508822582069,
              41.00828870604369
            ],
            [
              29.171138813697127,
              41.01239190502904
            ],
            [
              29.16443086254507,
              41.01198853552242
            ]
          ]
        ]
      },
      "properties": {
        "analysis_id": 35,
        "cell_index": "881ec9159bfffff",
        "suitability_score": 52.57,
        "score_class": "medium",
        "criteria_breakdown": {
          "method": "AHP_TOPSIS",
          "criteria_order": [
            "obstacle",
            "transport",
            "land_use",
            "nfz"
          ],
          "criteria_direction": {
            "obstacle": "cost",
            "transport": "benefit",
            "land_use": "benefit",
            "nfz": "benefit"
          },
          "criteria_scores": {
            "obstacle": 0.2754152567534277,
            "transport": 0.9692463240281787,
            "land_use": 0.8101256173756266,
            "nfz": 1.0
          },
          "decision_values": {
            "obstacle": 0.7245847432465723,
            "transport": 0.9692463240281787,
            "land_use": 0.8101256173756266,
            "nfz": 1.0
          },
          "normalized_values": {
            "obstacle": 0.20836,
            "transport": 0.2068,
            "land_use": 0.211628,
            "nfz": 0.208514
          },
          "weighted_values": {
            "obstacle": 0.072926,
            "transport": 0.0517,
            "land_use": 0.042326,
            "nfz": 0.041703
          },
          "ideal_best": {
            "obstacle": 0.065841,
            "transport": 0.05334,
            "land_use": 0.046212,
            "nfz": 0.041703
          },
          "ideal_worst": {
            "obstacle": 0.080362,
            "transport": 0.048856,
            "land_use": 0.037834,
            "nfz": 0.041703
          },
          "distance_to_best": 0.008246,
          "distance_to_worst": 0.009141,
          "topsis_closeness": 0.525738
        },
        "mcdm_method": "AHP_TOPSIS"
      }
    },
    {
      "type": "Feature",
      "geometry": {
        "type": "Polygon",
        "coordinates": [
          [
            [
              29.1431126061879,
              41.01938522807997
            ],
            [
              29.14035543273419,
              41.014878285993234
            ],
            [
              29.144306685603024,
              41.01077604455888
            ],
            [
              29.151014798314787,
              41.011180605294605
            ],
            [
              29.153772322486518,
              41.01568737633757
            ],
            [
              29.149821383305717,
              41.01978975769354
            ],
            [
              29.1431126061879,
              41.01938522807997
            ]
          ]
        ]
      },
      "properties": {
        "analysis_id": 35,
        "cell_index": "881ec915d7fffff",
        "suitability_score": 49.92,
        "score_class": "low",
        "criteria_breakdown": {
          "method": "AHP_TOPSIS",
          "criteria_order": [
            "obstacle",
            "transport",
            "land_use",
            "nfz"
          ],
          "criteria_direction": {
            "obstacle": "cost",
            "transport": "benefit",
            "land_use": "benefit",
            "nfz": "benefit"
          },
          "criteria_scores": {
            "obstacle": 0.2858600700357603,
            "transport": 0.9487938219794989,
            "land_use": 0.7680880036060904,
            "nfz": 1.0
          },
          "decision_values": {
            "obstacle": 0.7141399299642397,
            "transport": 0.9487938219794989,
            "land_use": 0.7680880036060904,
            "nfz": 1.0
          },
          "normalized_values": {
            "obstacle": 0.205357,
            "transport": 0.202436,
            "land_use": 0.200647,
            "nfz": 0.208514
          },
          "weighted_values": {
            "obstacle": 0.071875,
            "transport": 0.050609,
            "land_use": 0.040129,
            "nfz": 0.041703
          },
          "ideal_best": {
            "obstacle": 0.065841,
            "transport": 0.05334,
            "land_use": 0.046212,
            "nfz": 0.041703
          },
          "ideal_worst": {
            "obstacle": 0.080362,
            "transport": 0.048856,
            "land_use": 0.037834,
            "nfz": 0.041703
          },
          "distance_to_best": 0.008992,
          "distance_to_worst": 0.008965,
          "topsis_closeness": 0.499232
        },
        "mcdm_method": "AHP_TOPSIS"
      }
    },
    {
      "type": "Feature",
      "geometry": {
        "type": "Polygon",
        "coordinates": [
          [
            [
              29.18336446051094,
              41.02180644826888
            ],
            [
              29.1806054555182,
              41.01730079157111
            ],
            [
              29.184554553158836,
              41.01319745286435
            ],
            [
              29.191262341102053,
              41.01359963120776
            ],
            [
              29.19402169586539,
              41.018105116577495
            ],
            [
              29.190072912992175,
              41.02220859493673
            ],
            [
              29.18336446051094,
              41.02180644826888
            ]
          ]
        ]
      },
      "properties": {
        "analysis_id": 35,
        "cell_index": "881ec914a3fffff",
        "suitability_score": 44.74,
        "score_class": "low",
        "criteria_breakdown": {
          "method": "AHP_TOPSIS",
          "criteria_order": [
            "obstacle",
            "transport",
            "land_use",
            "nfz"
          ],
          "criteria_direction": {
            "obstacle": "cost",
            "transport": "benefit",
            "land_use": "benefit",
            "nfz": "benefit"
          },
          "criteria_scores": {
            "obstacle": 0.2664818949686554,
            "transport": 0.9577327883936774,
            "land_use": 0.7922619323717109,
            "nfz": 1.0
          },
          "decision_values": {
            "obstacle": 0.7335181050313446,
            "transport": 0.9577327883936774,
            "land_use": 0.7922619323717109,
            "nfz": 1.0
          },
          "normalized_values": {
            "obstacle": 0.210929,
            "transport": 0.204343,
            "land_use": 0.206962,
            "nfz": 0.208514
          },
          "weighted_values": {
            "obstacle": 0.073825,
            "transport": 0.051086,
            "land_use": 0.041392,
            "nfz": 0.041703
          },
          "ideal_best": {
            "obstacle": 0.065841,
            "transport": 0.05334,
            "land_use": 0.046212,
            "nfz": 0.041703
          },
          "ideal_worst": {
            "obstacle": 0.080362,
            "transport": 0.048856,
            "land_use": 0.037834,
            "nfz": 0.041703
          },
          "distance_to_best": 0.009595,
          "distance_to_worst": 0.007769,
          "topsis_closeness": 0.447434
        },
        "mcdm_method": "AHP_TOPSIS"
      }
    },
    {
      "type": "Feature",
      "geometry": {
        "type": "Polygon",
        "coordinates": [
          [
            [
              29.153772322486518,
              41.01568737633757
            ],
            [
              29.151014798314787,
              41.011180605294605
            ],
            [
              29.154965287974736,
              41.00707795485609
            ],
            [
              29.161672987940335,
              41.00748193560947
            ],
            [
              29.16443086254507,
              41.01198853552242
            ],
            [
              29.160480686828464,
              41.01609132581693
            ],
            [
              29.153772322486518,
              41.01568737633757
            ]
          ]
        ]
      },
      "properties": {
        "analysis_id": 35,
        "cell_index": "881ec91599fffff",
        "suitability_score": 42.16,
        "score_class": "low",
        "criteria_breakdown": {
          "method": "AHP_TOPSIS",
          "criteria_order": [
            "obstacle",
            "transport",
            "land_use",
            "nfz"
          ],
          "criteria_direction": {
            "obstacle": "cost",
            "transport": "benefit",
            "land_use": "benefit",
            "nfz": "benefit"
          },
          "criteria_scores": {
            "obstacle": 0.25569929423641863,
            "transport": 1.0,
            "land_use": 0.7819729874730048,
            "nfz": 1.0
          },
          "decision_values": {
            "obstacle": 0.7443007057635813,
            "transport": 1.0,
            "land_use": 0.7819729874730048,
            "nfz": 1.0
          },
          "normalized_values": {
            "obstacle": 0.21403,
            "transport": 0.213361,
            "land_use": 0.204274,
            "nfz": 0.208514
          },
          "weighted_values": {
            "obstacle": 0.07491,
            "transport": 0.05334,
            "land_use": 0.040855,
            "nfz": 0.041703
          },
          "ideal_best": {
            "obstacle": 0.065841,
            "transport": 0.05334,
            "land_use": 0.046212,
            "nfz": 0.041703
          },
          "ideal_worst": {
            "obstacle": 0.080362,
            "transport": 0.048856,
            "land_use": 0.037834,
            "nfz": 0.041703
          },
          "distance_to_best": 0.010533,
          "distance_to_worst": 0.007678,
          "topsis_closeness": 0.421602
        },
        "mcdm_method": "AHP_TOPSIS"
      }
    },
    {
      "type": "Feature",
      "geometry": {
        "type": "Polygon",
        "coordinates": [
          [
            [
              29.192832483083706,
              41.02671377975105
            ],
            [
              29.190072912992175,
              41.02220859493673
            ],
            [
              29.19402169586539,
              41.018105116577495
            ],
            [
              29.200729733855468,
              41.018506683453985
            ],
            [
              29.203489653528706,
              41.02301169688443
            ],
            [
              29.19954118570743,
              41.02711531482714
            ],
            [
              29.192832483083706,
              41.02671377975105
            ]
          ]
        ]
      },
      "properties": {
        "analysis_id": 35,
        "cell_index": "881ec914bdfffff",
        "suitability_score": 40.9,
        "score_class": "low",
        "criteria_breakdown": {
          "method": "AHP_TOPSIS",
          "criteria_order": [
            "obstacle",
            "transport",
            "land_use",
            "nfz"
          ],
          "criteria_direction": {
            "obstacle": "cost",
            "transport": "benefit",
            "land_use": "benefit",
            "nfz": "benefit"
          },
          "criteria_scores": {
            "obstacle": 0.22642612426458533,
            "transport": 0.9789277093203105,
            "land_use": 0.8631714297954858,
            "nfz": 1.0
          },
          "decision_values": {
            "obstacle": 0.7735738757354147,
            "transport": 0.9789277093203105,
            "land_use": 0.8631714297954858,
            "nfz": 1.0
          },
          "normalized_values": {
            "obstacle": 0.222448,
            "transport": 0.208865,
            "land_use": 0.225485,
            "nfz": 0.208514
          },
          "weighted_values": {
            "obstacle": 0.077857,
            "transport": 0.052216,
            "land_use": 0.045097,
            "nfz": 0.041703
          },
          "ideal_best": {
            "obstacle": 0.065841,
            "transport": 0.05334,
            "land_use": 0.046212,
            "nfz": 0.041703
          },
          "ideal_worst": {
            "obstacle": 0.080362,
            "transport": 0.048856,
            "land_use": 0.037834,
            "nfz": 0.041703
          },
          "distance_to_best": 0.012119,
          "distance_to_worst": 0.008386,
          "topsis_closeness": 0.408957
        },
        "mcdm_method": "AHP_TOPSIS"
      }
    },
    {
      "type": "Feature",
      "geometry": {
        "type": "Polygon",
        "coordinates": [
          [
            [
              29.154965287974736,
              41.00707795485609
            ],
            [
              29.152207978658996,
              41.00257088361162
            ],
            [
              29.156158018895077,
              40.99846796427583
            ],
            [
              29.16286505461009,
              40.998871976330236
            ],
            [
              29.165622714262376,
              41.003378876414466
            ],
            [
              29.161672987940335,
              41.00748193560947
            ],
            [
              29.154965287974736,
              41.00707795485609
            ]
          ]
        ]
      },
      "properties": {
        "analysis_id": 35,
        "cell_index": "881ec91591fffff",
        "suitability_score": 39.64,
        "score_class": "low",
        "criteria_breakdown": {
          "method": "AHP_TOPSIS",
          "criteria_order": [
            "obstacle",
            "transport",
            "land_use",
            "nfz"
          ],
          "criteria_direction": {
            "obstacle": "cost",
            "transport": "benefit",
            "land_use": "benefit",
            "nfz": "benefit"
          },
          "criteria_scores": {
            "obstacle": 0.26026975238003525,
            "transport": 0.9816379155222414,
            "land_use": 0.7597830627322624,
            "nfz": 1.0
          },
          "decision_values": {
            "obstacle": 0.7397302476199648,
            "transport": 0.9816379155222414,
            "land_use": 0.7597830627322624,
            "nfz": 1.0
          },
          "normalized_values": {
            "obstacle": 0.212716,
            "transport": 0.209444,
            "land_use": 0.198477,
            "nfz": 0.208514
          },
          "weighted_values": {
            "obstacle": 0.07445,
            "transport": 0.052361,
            "land_use": 0.039695,
            "nfz": 0.041703
          },
          "ideal_best": {
            "obstacle": 0.065841,
            "transport": 0.05334,
            "land_use": 0.046212,
            "nfz": 0.041703
          },
          "ideal_worst": {
            "obstacle": 0.080362,
            "transport": 0.048856,
            "land_use": 0.037834,
            "nfz": 0.041703
          },
          "distance_to_best": 0.010842,
          "distance_to_worst": 0.00712,
          "topsis_closeness": 0.396391
        },
        "mcdm_method": "AHP_TOPSIS"
      }
    },
    {
      "type": "Feature",
      "geometry": {
        "type": "Polygon",
        "coordinates": [
          [
            [
              29.18217413375921,
              41.03041487418097
            ],
            [
              29.17941491353461,
              41.025909518068794
            ],
            [
              29.18336446051094,
              41.02180644826888
            ],
            [
              29.190072912992175,
              41.02220859493673
            ],
            [
              29.192832483083706,
              41.02671377975105
            ],
            [
              29.18888325090436,
              41.030816989200275
            ],
            [
              29.18217413375921,
              41.03041487418097
            ]
          ]
        ]
      },
      "properties": {
        "analysis_id": 35,
        "cell_index": "881ec914abfffff",
        "suitability_score": 37.92,
        "score_class": "low",
        "criteria_breakdown": {
          "method": "AHP_TOPSIS",
          "criteria_order": [
            "obstacle",
            "transport",
            "land_use",
            "nfz"
          ],
          "criteria_direction": {
            "obstacle": "cost",
            "transport": "benefit",
            "land_use": "benefit",
            "nfz": "benefit"
          },
          "criteria_scores": {
            "obstacle": 0.2504213746521672,
            "transport": 0.9583646977921866,
            "land_use": 0.7973601953888685,
            "nfz": 1.0
          },
          "decision_values": {
            "obstacle": 0.7495786253478328,
            "transport": 0.9583646977921866,
            "land_use": 0.7973601953888685,
            "nfz": 1.0
          },
          "normalized_values": {
            "obstacle": 0.215548,
            "transport": 0.204478,
            "land_use": 0.208293,
            "nfz": 0.208514
          },
          "weighted_values": {
            "obstacle": 0.075442,
            "transport": 0.051119,
            "land_use": 0.041659,
            "nfz": 0.041703
          },
          "ideal_best": {
            "obstacle": 0.065841,
            "transport": 0.05334,
            "land_use": 0.046212,
            "nfz": 0.041703
          },
          "ideal_worst": {
            "obstacle": 0.080362,
            "transport": 0.048856,
            "land_use": 0.037834,
            "nfz": 0.041703
          },
          "distance_to_best": 0.010855,
          "distance_to_worst": 0.00663,
          "topsis_closeness": 0.379185
        },
        "mcdm_method": "AHP_TOPSIS"
      }
    },
    {
      "type": "Feature",
      "geometry": {
        "type": "Polygon",
        "coordinates": [
          [
            [
              29.195210674766056,
              41.00949588412373
            ],
            [
              29.192451535301952,
              41.004990098356814
            ],
            [
              29.196399419853684,
              41.00088608273324
            ],
            [
              29.20310612895414,
              41.00128771329163
            ],
            [
              29.2058656178075,
              41.005793327614256
            ],
            [
              29.20191804824841,
              41.009897482827654
            ],
            [
              29.195210674766056,
              41.00949588412373
            ]
          ]
        ]
      },
      "properties": {
        "analysis_id": 35,
        "cell_index": "881ec9064bfffff",
        "suitability_score": 37.7,
        "score_class": "low",
        "criteria_breakdown": {
          "method": "AHP_TOPSIS",
          "criteria_order": [
            "obstacle",
            "transport",
            "land_use",
            "nfz"
          ],
          "criteria_direction": {
            "obstacle": "cost",
            "transport": "benefit",
            "land_use": "benefit",
            "nfz": "benefit"
          },
          "criteria_scores": {
            "obstacle": 0.21117986714494877,
            "transport": 1.0,
            "land_use": 0.8554432758003109,
            "nfz": 1.0
          },
          "decision_values": {
            "obstacle": 0.7888201328550513,
            "transport": 1.0,
            "land_use": 0.8554432758003109,
            "nfz": 1.0
          },
          "normalized_values": {
            "obstacle": 0.226832,
            "transport": 0.213361,
            "land_use": 0.223466,
            "nfz": 0.208514
          },
          "weighted_values": {
            "obstacle": 0.079391,
            "transport": 0.05334,
            "land_use": 0.044693,
            "nfz": 0.041703
          },
          "ideal_best": {
            "obstacle": 0.065841,
            "transport": 0.05334,
            "land_use": 0.046212,
            "nfz": 0.041703
          },
          "ideal_worst": {
            "obstacle": 0.080362,
            "transport": 0.048856,
            "land_use": 0.037834,
            "nfz": 0.041703
          },
          "distance_to_best": 0.013635,
          "distance_to_worst": 0.008252,
          "topsis_closeness": 0.377041
        },
        "mcdm_method": "AHP_TOPSIS"
      }
    },
    {
      "type": "Feature",
      "geometry": {
        "type": "Polygon",
        "coordinates": [
          [
            [
              29.16323877641448,
              41.020597625400285
            ],
            [
              29.160480686828464,
              41.01609132581693
            ],
            [
              29.16443086254507,
              41.01198853552242
            ],
            [
              29.171138813697127,
              41.01239190502904
            ],
            [
              29.17389725352756,
              41.016898033426386
            ],
            [
              29.16994739203882,
              41.02100096350804
            ],
            [
              29.16323877641448,
              41.020597625400285
            ]
          ]
        ]
      },
      "properties": {
        "analysis_id": 35,
        "cell_index": "881ec914a5fffff",
        "suitability_score": 37.01,
        "score_class": "low",
        "criteria_breakdown": {
          "method": "AHP_TOPSIS",
          "criteria_order": [
            "obstacle",
            "transport",
            "land_use",
            "nfz"
          ],
          "criteria_direction": {
            "obstacle": "cost",
            "transport": "benefit",
            "land_use": "benefit",
            "nfz": "benefit"
          },
          "criteria_scores": {
            "obstacle": 0.2253369243758118,
            "transport": 1.0,
            "land_use": 0.8257322441962855,
            "nfz": 1.0
          },
          "decision_values": {
            "obstacle": 0.7746630756241882,
            "transport": 1.0,
            "land_use": 0.8257322441962855,
            "nfz": 1.0
          },
          "normalized_values": {
            "obstacle": 0.222761,
            "transport": 0.213361,
            "land_use": 0.215705,
            "nfz": 0.208514
          },
          "weighted_values": {
            "obstacle": 0.077966,
            "transport": 0.05334,
            "land_use": 0.043141,
            "nfz": 0.041703
          },
          "ideal_best": {
            "obstacle": 0.065841,
            "transport": 0.05334,
            "land_use": 0.046212,
            "nfz": 0.041703
          },
          "ideal_worst": {
            "obstacle": 0.080362,
            "transport": 0.048856,
            "land_use": 0.037834,
            "nfz": 0.041703
          },
          "distance_to_best": 0.012508,
          "distance_to_worst": 0.007349,
          "topsis_closeness": 0.370105
        },
        "mcdm_method": "AHP_TOPSIS"
      }
    },
    {
      "type": "Feature",
      "geometry": {
        "type": "Polygon",
        "coordinates": [
          [
            [
              29.16204645580248,
              41.02920614570465
            ],
            [
              29.15928815120634,
              41.024700146609064
            ],
            [
              29.16323877641448,
              41.020597625400285
            ],
            [
              29.16994739203882,
              41.02100096350804
            ],
            [
              29.172706046975836,
              41.025506791447775
            ],
            [
              29.168755736024938,
              41.02960945244053
            ],
            [
              29.16204645580248,
              41.02920614570465
            ]
          ]
        ]
      },
      "properties": {
        "analysis_id": 35,
        "cell_index": "881ec914adfffff",
        "suitability_score": 36.66,
        "score_class": "low",
        "criteria_breakdown": {
          "method": "AHP_TOPSIS",
          "criteria_order": [
            "obstacle",
            "transport",
            "land_use",
            "nfz"
          ],
          "criteria_direction": {
            "obstacle": "cost",
            "transport": "benefit",
            "land_use": "benefit",
            "nfz": "benefit"
          },
          "criteria_scores": {
            "obstacle": 0.2564133432941542,
            "transport": 1.0,
            "land_use": 0.7241503744931311,
            "nfz": 1.0
          },
          "decision_values": {
            "obstacle": 0.7435866567058458,
            "transport": 1.0,
            "land_use": 0.7241503744931311,
            "nfz": 1.0
          },
          "normalized_values": {
            "obstacle": 0.213825,
            "transport": 0.213361,
            "land_use": 0.189169,
            "nfz": 0.208514
          },
          "weighted_values": {
            "obstacle": 0.074839,
            "transport": 0.05334,
            "land_use": 0.037834,
            "nfz": 0.041703
          },
          "ideal_best": {
            "obstacle": 0.065841,
            "transport": 0.05334,
            "land_use": 0.046212,
            "nfz": 0.041703
          },
          "ideal_worst": {
            "obstacle": 0.080362,
            "transport": 0.048856,
            "land_use": 0.037834,
            "nfz": 0.041703
          },
          "distance_to_best": 0.012294,
          "distance_to_worst": 0.007114,
          "topsis_closeness": 0.366555
        },
        "mcdm_method": "AHP_TOPSIS"
      }
    },
    {
      "type": "Feature",
      "geometry": {
        "type": "Polygon",
        "coordinates": [
          [
            [
              29.19402169586539,
              41.018105116577495
            ],
            [
              29.191262341102053,
              41.01359963120776
            ],
            [
              29.195210674766056,
              41.00949588412373
            ],
            [
              29.20191804824841,
              41.009897482827654
            ],
            [
              29.204677752497215,
              41.01440279678331
            ],
            [
              29.200729733855468,
              41.018506683453985
            ],
            [
              29.19402169586539,
              41.018105116577495
            ]
          ]
        ]
      },
      "properties": {
        "analysis_id": 35,
        "cell_index": "881ec914b5fffff",
        "suitability_score": 29.91,
        "score_class": "low",
        "criteria_breakdown": {
          "method": "AHP_TOPSIS",
          "criteria_order": [
            "obstacle",
            "transport",
            "land_use",
            "nfz"
          ],
          "criteria_direction": {
            "obstacle": "cost",
            "transport": "benefit",
            "land_use": "benefit",
            "nfz": "benefit"
          },
          "criteria_scores": {
            "obstacle": 0.2374749533453665,
            "transport": 1.0,
            "land_use": 0.731155674122543,
            "nfz": 1.0
          },
          "decision_values": {
            "obstacle": 0.7625250466546335,
            "transport": 1.0,
            "land_use": 0.731155674122543,
            "nfz": 1.0
          },
          "normalized_values": {
            "obstacle": 0.21927,
            "transport": 0.213361,
            "land_use": 0.190999,
            "nfz": 0.208514
          },
          "weighted_values": {
            "obstacle": 0.076745,
            "transport": 0.05334,
            "land_use": 0.0382,
            "nfz": 0.041703
          },
          "ideal_best": {
            "obstacle": 0.065841,
            "transport": 0.05334,
            "land_use": 0.046212,
            "nfz": 0.041703
          },
          "ideal_worst": {
            "obstacle": 0.080362,
            "transport": 0.048856,
            "land_use": 0.037834,
            "nfz": 0.041703
          },
          "distance_to_best": 0.013531,
          "distance_to_worst": 0.005773,
          "topsis_closeness": 0.299052
        },
        "mcdm_method": "AHP_TOPSIS"
      }
    },
    {
      "type": "Feature",
      "geometry": {
        "type": "Polygon",
        "coordinates": [
          [
            [
              29.15138568753372,
              41.03290451063017
            ],
            [
              29.14862773356361,
              41.02839834046491
            ],
            [
              29.152579122362244,
              41.02429622837672
            ],
            [
              29.15928815120634,
              41.024700146609064
            ],
            [
              29.16204645580248,
              41.02920614570465
            ],
            [
              29.1580953810058,
              41.0333083976425
            ],
            [
              29.15138568753372,
              41.03290451063017
            ]
          ]
        ]
      },
      "properties": {
        "analysis_id": 35,
        "cell_index": "881ec915dbfffff",
        "suitability_score": 26.97,
        "score_class": "low",
        "criteria_breakdown": {
          "method": "AHP_TOPSIS",
          "criteria_order": [
            "obstacle",
            "transport",
            "land_use",
            "nfz"
          ],
          "criteria_direction": {
            "obstacle": "cost",
            "transport": "benefit",
            "land_use": "benefit",
            "nfz": "benefit"
          },
          "criteria_scores": {
            "obstacle": 0.24898284225468123,
            "transport": 0.9159337304569626,
            "land_use": 0.7398574960580696,
            "nfz": 1.0
          },
          "decision_values": {
            "obstacle": 0.7510171577453187,
            "transport": 0.9159337304569626,
            "land_use": 0.7398574960580696,
            "nfz": 1.0
          },
          "normalized_values": {
            "obstacle": 0.215961,
            "transport": 0.195425,
            "land_use": 0.193272,
            "nfz": 0.208514
          },
          "weighted_values": {
            "obstacle": 0.075586,
            "transport": 0.048856,
            "land_use": 0.038654,
            "nfz": 0.041703
          },
          "ideal_best": {
            "obstacle": 0.065841,
            "transport": 0.05334,
            "land_use": 0.046212,
            "nfz": 0.041703
          },
          "ideal_worst": {
            "obstacle": 0.080362,
            "transport": 0.048856,
            "land_use": 0.037834,
            "nfz": 0.041703
          },
          "distance_to_best": 0.013122,
          "distance_to_worst": 0.004845,
          "topsis_closeness": 0.269666
        },
        "mcdm_method": "AHP_TOPSIS"
      }
    },
    {
      "type": "Feature",
      "geometry": {
        "type": "Polygon",
        "coordinates": [
          [
            [
              29.144306685603024,
              41.01077604455888
            ],
            [
              29.141549726908774,
              41.006268802240434
            ],
            [
              29.145500530227554,
              41.002166291726745
            ],
            [
              29.152207978658996,
              41.00257088361162
            ],
            [
              29.154965287974736,
              41.00707795485609
            ],
            [
              29.151014798314787,
              41.011180605294605
            ],
            [
              29.144306685603024,
              41.01077604455888
            ]
          ]
        ]
      },
      "properties": {
        "analysis_id": 35,
        "cell_index": "881ec9159dfffff",
        "suitability_score": 21.29,
        "score_class": "low",
        "criteria_breakdown": {
          "method": "AHP_TOPSIS",
          "criteria_order": [
            "obstacle",
            "transport",
            "land_use",
            "nfz"
          ],
          "criteria_direction": {
            "obstacle": "cost",
            "transport": "benefit",
            "land_use": "benefit",
            "nfz": "benefit"
          },
          "criteria_scores": {
            "obstacle": 0.20153742285946788,
            "transport": 1.0,
            "land_use": 0.7298552005970513,
            "nfz": 1.0
          },
          "decision_values": {
            "obstacle": 0.7984625771405321,
            "transport": 1.0,
            "land_use": 0.7298552005970513,
            "nfz": 1.0
          },
          "normalized_values": {
            "obstacle": 0.229605,
            "transport": 0.213361,
            "land_use": 0.190659,
            "nfz": 0.208514
          },
          "weighted_values": {
            "obstacle": 0.080362,
            "transport": 0.05334,
            "land_use": 0.038132,
            "nfz": 0.041703
          },
          "ideal_best": {
            "obstacle": 0.065841,
            "transport": 0.05334,
            "land_use": 0.046212,
            "nfz": 0.041703
          },
          "ideal_worst": {
            "obstacle": 0.080362,
            "transport": 0.048856,
            "land_use": 0.037834,
            "nfz": 0.041703
          },
          "distance_to_best": 0.016617,
          "distance_to_worst": 0.004494,
          "topsis_closeness": 0.212875
        },
        "mcdm_method": "AHP_TOPSIS"
      }
    }
  ]
}